{
  "type": "FeatureCollection",
  "features": [
    {
      "type": "Feature",
      "properties": {
        "norad_id": 30289,
        "name": "FENGYUN 1C DEB",
        "group": "fengyun-1c-debris",
        "lat": 67.38093694617338,
        "lon": 53.388781349085924,
        "alt_km": 793.0019457873777,
        "timestamp": "2025-12-05T04:52:15.567700+00:00",
        "meta_object_name": "FENGYUN 1C DEB",
        "meta_object_id": "1999-025ZA",
        "meta_epoch": "2025-12-04T12:18:52.704864",
        "meta_mean_motion": 14.2570827,
        "meta_eccentricity": 0.0037037,
        "meta_inclination": 98.928,
        "meta_ra_of_asc_node": 74.8523,
        "meta_arg_of_pericenter": 355.0196,
        "meta_mean_anomaly": 135.0375,
        "meta_ephemeris_type": 0,
        "meta_classification_type": "U",
        "meta_norad_cat_id": 30289,
        "meta_element_set_no": 999,
        "meta_rev_at_epoch": 96964,
        "meta_bstar": 0.0042355,
        "meta_mean_motion_dot": 0.0001009,
        "meta_mean_motion_ddot": 0,
        "tle_line1": "1 30289U 99025ZA  25338.51311001  .00010090  00000+0  42355-2 0  9990",
        "tle_line2": "2 30289  98.9280  74.8523 0037037 355.0196 135.0375 14.25708270969642"
      },
      "geometry": {
        "type": "Point",
        "coordinates": [
          53.388781349085924,
          67.38093694617338
        ]
      }
    },
    {
      "type": "Feature",
      "properties": {
        "norad_id": 30290,
        "name": "FENGYUN 1C DEB",
        "group": "fengyun-1c-debris",
        "lat": -71.8505142972318,
        "lon": 119.99307219918506,
        "alt_km": 665.3853400409243,
        "timestamp": "2025-12-05T04:52:15.567709+00:00",
        "meta_object_name": "FENGYUN 1C DEB",
        "meta_object_id": "1999-025ZB",
        "meta_epoch": "2025-12-04T05:07:20.568864",
        "meta_mean_motion": 14.74002081,
        "meta_eccentricity": 0.0016657,
        "meta_inclination": 102.624,
        "meta_ra_of_asc_node": 75.3273,
        "meta_arg_of_pericenter": 79.8452,
        "meta_mean_anomaly": 354.9432,
        "meta_ephemeris_type": 0,
        "meta_classification_type": "U",
        "meta_norad_cat_id": 30290,
        "meta_element_set_no": 999,
        "meta_rev_at_epoch": 97753,
        "meta_bstar": 0.013519,
        "meta_mean_motion_dot": 0.00090214,
        "meta_mean_motion_ddot": 0,
        "tle_line1": "1 30290U 99025ZB  25338.21343251  .00090214  00000+0  13519-1 0  9996",
        "tle_line2": "2 30290 102.6240  75.3273 0016657  79.8452 354.9432 14.74002081977536"
      },
      "geometry": {
        "type": "Point",
        "coordinates": [
          119.99307219918506,
          -71.8505142972318
        ]
      }
    },
    {
      "type": "Feature",
      "properties": {
        "norad_id": 30291,
        "name": "FENGYUN 1C DEB",
        "group": "fengyun-1c-debris",
        "lat": -4.786592905594062,
        "lon": 48.390491317625376,
        "alt_km": 775.8874728204373,
        "timestamp": "2025-12-05T04:52:15.567718+00:00",
        "meta_object_name": "FENGYUN 1C DEB",
        "meta_object_id": "1999-025ZC",
        "meta_epoch": "2025-12-04T16:46:15.453408",
        "meta_mean_motion": 14.54903526,
        "meta_eccentricity": 0.0112467,
        "meta_inclination": 97.2337,
        "meta_ra_of_asc_node": 228.5632,
        "meta_arg_of_pericenter": 44.0381,
        "meta_mean_anomaly": 20.7869,
        "meta_ephemeris_type": 0,
        "meta_classification_type": "U",
        "meta_norad_cat_id": 30291,
        "meta_element_set_no": 999,
        "meta_rev_at_epoch": 97591,
        "meta_bstar": 0.0065494,
        "meta_mean_motion_dot": 0.00030717,
        "meta_mean_motion_ddot": 0,
        "tle_line1": "1 30291U 99025ZC  25338.69878997  .00030717  00000+0  65494-2 0  9991",
        "tle_line2": "2 30291  97.2337 228.5632 0112467  44.0381  20.7869 14.54903526975919"
      },
      "geometry": {
        "type": "Point",
        "coordinates": [
          48.390491317625376,
          -4.786592905594062
        ]
      }
    },
    {
      "type": "Feature",
      "properties": {
        "norad_id": 30293,
        "name": "FENGYUN 1C DEB",
        "group": "fengyun-1c-debris",
        "lat": -65.01988634058146,
        "lon": -31.081651123320324,
        "alt_km": 754.390907244775,
        "timestamp": "2025-12-05T04:52:15.567728+00:00",
        "meta_object_name": "FENGYUN 1C DEB",
        "meta_object_id": "1999-025ZE",
        "meta_epoch": "2025-12-04T06:59:26.636064",
        "meta_mean_motion": 14.48861202,
        "meta_eccentricity": 0.007657,
        "meta_inclination": 99.2545,
        "meta_ra_of_asc_node": 168.4054,
        "meta_arg_of_pericenter": 139.7502,
        "meta_mean_anomaly": 33.5327,
        "meta_ephemeris_type": 0,
        "meta_classification_type": "U",
        "meta_norad_cat_id": 30293,
        "meta_element_set_no": 999,
        "meta_rev_at_epoch": 98854,
        "meta_bstar": 0.0019309,
        "meta_mean_motion_dot": 7.53e-05,
        "meta_mean_motion_ddot": 0,
        "tle_line1": "1 30293U 99025ZE  25338.29128051  .00007530  00000+0  19309-2 0  9999",
        "tle_line2": "2 30293  99.2545 168.4054 0076570 139.7502  33.5327 14.48861202988546"
      },
      "geometry": {
        "type": "Point",
        "coordinates": [
          -31.081651123320324,
          -65.01988634058146
        ]
      }
    },
    {
      "type": "Feature",
      "properties": {
        "norad_id": 30294,
        "name": "FENGYUN 1C DEB",
        "group": "fengyun-1c-debris",
        "lat": -5.3931412582991864,
        "lon": 146.88838162425094,
        "alt_km": 896.8355035463774,
        "timestamp": "2025-12-05T04:52:15.567737+00:00",
        "meta_object_name": "FENGYUN 1C DEB",
        "meta_object_id": "1999-025ZF",
        "meta_epoch": "2025-12-04T10:19:12.417312",
        "meta_mean_motion": 14.349091,
        "meta_eccentricity": 0.019806,
        "meta_inclination": 98.3553,
        "meta_ra_of_asc_node": 326.9349,
        "meta_arg_of_pericenter": 334.5416,
        "meta_mean_anomaly": 181.5227,
        "meta_ephemeris_type": 0,
        "meta_classification_type": "U",
        "meta_norad_cat_id": 30294,
        "meta_element_set_no": 999,
        "meta_rev_at_epoch": 98417,
        "meta_bstar": 0.00095034,
        "meta_mean_motion_dot": 3.324e-05,
        "meta_mean_motion_ddot": 0,
        "tle_line1": "1 30294U 99025ZF  25338.43000483  .00003324  00000+0  95034-3 0  9991",
        "tle_line2": "2 30294  98.3553 326.9349 0198060 334.5416 181.5227 14.34909100984175"
      },
      "geometry": {
        "type": "Point",
        "coordinates": [
          146.88838162425094,
          -5.3931412582991864
        ]
      }
    },
    {
      "type": "Feature",
      "properties": {
        "norad_id": 30295,
        "name": "FENGYUN 1C DEB",
        "group": "fengyun-1c-debris",
        "lat": 35.697215854109714,
        "lon": -4.294455148464997,
        "alt_km": 779.8427940713364,
        "timestamp": "2025-12-05T04:52:15.567746+00:00",
        "meta_object_name": "FENGYUN 1C DEB",
        "meta_object_id": "1999-025ZG",
        "meta_epoch": "2025-12-03T07:48:29.820096",
        "meta_mean_motion": 14.25031927,
        "meta_eccentricity": 0.0094503,
        "meta_inclination": 98.5091,
        "meta_ra_of_asc_node": 0.0599,
        "meta_arg_of_pericenter": 109.6743,
        "meta_mean_anomaly": 20.6828,
        "meta_ephemeris_type": 0,
        "meta_classification_type": "U",
        "meta_norad_cat_id": 30295,
        "meta_element_set_no": 999,
        "meta_rev_at_epoch": 98042,
        "meta_bstar": 0.00023455,
        "meta_mean_motion_dot": 5.34e-06,
        "meta_mean_motion_ddot": 0,
        "tle_line1": "1 30295U 99025ZG  25337.32534514  .00000534  00000+0  23455-3 0  9994",
        "tle_line2": "2 30295  98.5091   0.0599 0094503 109.6743  20.6828 14.25031927980420"
      },
      "geometry": {
        "type": "Point",
        "coordinates": [
          -4.294455148464997,
          35.697215854109714
        ]
      }
    },
    {
      "type": "Feature",
      "properties": {
        "norad_id": 30297,
        "name": "FENGYUN 1C DEB",
        "group": "fengyun-1c-debris",
        "lat": 61.557736529890924,
        "lon": -85.89087000693345,
        "alt_km": 731.0062934531343,
        "timestamp": "2025-12-05T04:52:15.567755+00:00",
        "meta_object_name": "FENGYUN 1C DEB",
        "meta_object_id": "1999-025ZJ",
        "meta_epoch": "2025-12-04T10:34:26.588064",
        "meta_mean_motion": 14.21672293,
        "meta_eccentricity": 0.037956,
        "meta_inclination": 98.8107,
        "meta_ra_of_asc_node": 289.9852,
        "meta_arg_of_pericenter": 139.5845,
        "meta_mean_anomaly": 347.8123,
        "meta_ephemeris_type": 0,
        "meta_classification_type": "U",
        "meta_norad_cat_id": 30297,
        "meta_element_set_no": 999,
        "meta_rev_at_epoch": 95034,
        "meta_bstar": 0.0024492,
        "meta_mean_motion_dot": 0.00011231,
        "meta_mean_motion_ddot": 0,
        "tle_line1": "1 30297U 99025ZJ  25338.44058551  .00011231  00000+0  24492-2 0  9999",
        "tle_line2": "2 30297  98.8107 289.9852 0379560 139.5845 347.8123 14.21672293950340"
      },
      "geometry": {
        "type": "Point",
        "coordinates": [
          -85.89087000693345,
          61.557736529890924
        ]
      }
    }
  ]
}